{
    "links": {
        "self": "http://www.neowsapp.com/rest/v1/neo/3434370?api_key=iIulBulltgU6a56xZRHN4H3l9WmuAYTsLGpBGhQ2"
    },
    "id": "3434370",
    "neo_reference_id": "3434370",
    "name": "(2008 UX91)",
    "designation": "2008 UX91",
    "nasa_jpl_url": "http://ssd.jpl.nasa.gov/sbdb.cgi?sstr=3434370",
    "absolute_magnitude_h": 24.0,
    "estimated_diameter": {
        "kilometers": {
            "estimated_diameter_min": 0.0421264611,
            "estimated_diameter_max": 0.0941976306
        },
        "meters": {
            "estimated_diameter_min": 42.1264610556,
            "estimated_diameter_max": 94.1976305719
        },
        "miles": {
            "estimated_diameter_min": 0.0261761612,
            "estimated_diameter_max": 0.0585316759
        },
        "feet": {
            "estimated_diameter_min": 138.2101784897,
            "estimated_diameter_max": 309.0473542854
        }
    },
    "is_potentially_hazardous_asteroid": false,
    "close_approach_data": [
        {
            "close_approach_date": "2008-10-22",
            "close_approach_date_full": "2008-Oct-22 04:37",
            "epoch_date_close_approach": 1224650220000,
            "relative_velocity": {
                "kilometers_per_second": "14.470054902",
                "kilometers_per_hour": "52092.1976473451",
                "miles_per_hour": "32368.0658103739"
            },
            "miss_distance": {
                "astronomical": "0.1653331205",
                "lunar": "64.3145838745",
                "kilometers": "24733482.667253335",
                "miles": "15368673.474572623"
            },
            "orbiting_body": "Earth"
        }
    ],
    "orbital_data": {
        "orbit_id": "6",
        "orbit_determination_date": "2017-04-06 09:02:24",
        "first_observation_date": "2008-10-28",
        "last_observation_date": "2008-10-29",
        "data_arc_in_days": 1,
        "observations_used": 18,
        "orbit_uncertainty": "9",
        "minimum_orbit_intersection": ".165211",
        "jupiter_tisserand_invariant": "4.513",
        "epoch_osculation": "2454768.5",
        "eccentricity": ".2157950418115533",
        "semi_major_axis": "1.446552611020428",
        "inclination": "27.24176296215559",
        "ascending_node_longitude": "32.84933377859295",
        "orbital_period": "635.4769129920275",
        "perihelion_distance": "1.134393729842663",
        "perihelion_argument": "329.0235581347567",
        "aphelion_distance": "1.758711492198192",
        "perihelion_time": "2454731.825242692230",
        "mean_anomaly": "20.77638441439782",
        "mean_motion": ".5665036646335514",
        "equinox": "J2000",
        "orbit_class": {
            "orbit_class_type": "AMO",
            "orbit_class_description": "Near-Earth asteroid orbits similar to that of 1221 Amor",
            "orbit_class_range": "1.017 AU < q (perihelion) < 1.3 AU"
        }
    },
    "is_sentry_object": false
}